{
  "type": "FeatureCollection",
  "features": [
    {
      "type": "Feature",
      "properties": {
        "norad_id": 54741,
        "name": "GALAXY 35 (G-35)",
        "group": "intelsat",
        "lat": -0.027716614644437934,
        "lon": -87.26533790061913,
        "alt_km": 35775.15649360102,
        "timestamp": "2025-12-02T19:35:50.229811+00:00",
        "meta_object_name": "GALAXY 35 (G-35)",
        "meta_object_id": "2022-170A",
        "meta_epoch": "2025-12-02T08:12:19.589760",
        "meta_mean_motion": 1.00269326,
        "meta_eccentricity": 0.0002817,
        "meta_inclination": 0.017,
        "meta_ra_of_asc_node": 316.6436,
        "meta_arg_of_pericenter": 303.5451,
        "meta_mean_anomaly": 201.2251,
        "meta_ephemeris_type": 0,
        "meta_classification_type": "U",
        "meta_norad_cat_id": 54741,
        "meta_element_set_no": 999,
        "meta_rev_at_epoch": 1092,
        "meta_bstar": 0,
        "meta_mean_motion_dot": 0,
        "meta_mean_motion_ddot": 0,
        "tle_line1": "1 54741U 22170A   25336.34189340  .00000000  00000+0  00000+0 0  9992",
        "tle_line2": "2 54741   0.0170 316.6436 0002817 303.5451 201.2251  1.00269326 10923"
      },
      "geometry": {
        "type": "Point",
        "coordinates": [
          -87.26533790061913,
          -0.027716614644437934
        ]
      }
    },
    {
      "type": "Feature",
      "properties": {
        "norad_id": 54742,
        "name": "GALAXY 36 (G-36)",
        "group": "intelsat",
        "lat": -0.0033995940434134483,
        "lon": -83.143601911809,
        "alt_km": 35784.44233615614,
        "timestamp": "2025-12-02T19:35:50.229823+00:00",
        "meta_object_name": "GALAXY 36 (G-36)",
        "meta_object_id": "2022-170B",
        "meta_epoch": "2025-12-02T08:13:19.496064",
        "meta_mean_motion": 1.00270657,
        "meta_eccentricity": 5.56e-05,
        "meta_inclination": 0.0194,
        "meta_ra_of_asc_node": 260.9589,
        "meta_arg_of_pericenter": 343.2506,
        "meta_mean_anomaly": 221.5777,
        "meta_ephemeris_type": 0,
        "meta_classification_type": "U",
        "meta_norad_cat_id": 54742,
        "meta_element_set_no": 999,
        "meta_rev_at_epoch": 1080,
        "meta_bstar": 0,
        "meta_mean_motion_dot": -1.64e-06,
        "meta_mean_motion_ddot": 0,
        "tle_line1": "1 54742U 22170B   25336.34258676 -.00000164  00000+0  00000+0 0  9994",
        "tle_line2": "2 54742   0.0194 260.9589 0000556 343.2506 221.5777  1.00270657 10804"
      },
      "geometry": {
        "type": "Point",
        "coordinates": [
          -83.143601911809,
          -0.0033995940434134483
        ]
      }
    },
    {
      "type": "Feature",
      "properties": {
        "norad_id": 57493,
        "name": "GALAXY 37 (G-37)",
        "group": "intelsat",
        "lat": -0.036847884655567764,
        "lon": -121.14854648852824,
        "alt_km": 35775.82077368314,
        "timestamp": "2025-12-02T19:35:50.229834+00:00",
        "meta_object_name": "GALAXY 37 (G-37)",
        "meta_object_id": "2023-112A",
        "meta_epoch": "2025-12-02T10:45:38.709216",
        "meta_mean_motion": 1.00273182,
        "meta_eccentricity": 0.0002443,
        "meta_inclination": 0.0181,
        "meta_ra_of_asc_node": 295.9605,
        "meta_arg_of_pericenter": 320.8736,
        "meta_mean_anomaly": 209.1407,
        "meta_ephemeris_type": 0,
        "meta_classification_type": "U",
        "meta_norad_cat_id": 57493,
        "meta_element_set_no": 999,
        "meta_rev_at_epoch": 857,
        "meta_bstar": 0,
        "meta_mean_motion_dot": 6.8e-07,
        "meta_mean_motion_ddot": 0,
        "tle_line1": "1 57493U 23112A   25336.44836469  .00000068  00000+0  00000+0 0  9992",
        "tle_line2": "2 57493   0.0181 295.9605 0002443 320.8736 209.1407  1.00273182  8575"
      },
      "geometry": {
        "type": "Point",
        "coordinates": [
          -121.14854648852824,
          -0.036847884655567764
        ]
      }
    }
  ]
}